{"type": "FeatureCollection", "features": [ {"type": "Feature", "properties": {"norad_id": 67143, "name": "KUIPER-00191", "group": "last-30-days", "lat": 5.529490424647519, "lon": -131.07684535607402, "alt_km": 456.44000387490723, "timestamp": "2025-12-27T15:27:09.834635+00:00", "meta": {"OBJECT_NAME": "KUIPER-00191", "OBJECT_ID": "2025-301L", "EPOCH": "2025-12-27T05:19:46.971552", "MEAN_MOTION": 15.35219059, "ECCENTRICITY": 0.00067647, "INCLINATION": 51.8677, "RA_OF_ASC_NODE": 55.3187, "ARG_OF_PERICENTER": 135.8074, "MEAN_ANOMALY": 224.3453, "EPHEMERIS_TYPE": 0, "CLASSIFICATION_TYPE": "U", "NORAD_CAT_ID": 67143, "ELEMENT_SET_NO": 999, "REV_AT_EPOCH": 262, "BSTAR": 0.0009070808, "MEAN_MOTION_DOT": 0.00031256, "MEAN_MOTION_DDOT": 0}, "tle": {"line1": "1 67143U 25301L   25361.22207143  .00031256  00000+0  90708-3 0  9993", "line2": "2 67143  51.8677  55.3187 0006764 135.8074 224.3453 15.35219059  2620"}}, "geometry": {"type": "Point", "coordinates": [-131.07684535607402, 5.529490424647519]}}, {"type": "Feature", "properties": {"norad_id": 67144, "name": "KUIPER-00196", "group": "last-30-days", "lat": -22.652453643635162, "lon": -107.65880589611568, "alt_km": 461.2554465317389, "timestamp": "2025-12-27T15:27:09.834646+00:00", "meta": {"OBJECT_NAME": "KUIPER-00196", "OBJECT_ID": "2025-301M", "EPOCH": "2025-12-27T06:44:19.830912", "MEAN_MOTION": 15.36061213, "ECCENTRICITY": 0.00039612, "INCLINATION": 51.874, "RA_OF_ASC_NODE": 54.9606, "ARG_OF_PERICENTER": 110.8141, "MEAN_ANOMALY": 249.327, "EPHEMERIS_TYPE": 0, "CLASSIFICATION_TYPE": "U", "NORAD_CAT_ID": 67144, "ELEMENT_SET_NO": 999, "REV_AT_EPOCH": 260, "BSTAR": 0.00020687636, "MEAN_MOTION_DOT": 7e-05, "MEAN_MOTION_DDOT": 0}, "tle": {"line1": "1 67144U 25301M   25361.28078508  .00007000  00000+0  20688-3 0  9991", "line2": "2 67144  51.8740  54.9606 0003961 110.8141 249.3270 15.36061213  2607"}}, "geometry": {"type": "Point", "coordinates": [-107.65880589611568, -22.652453643635162]}}, {"type": "Feature", "properties": {"norad_id": 67145, "name": "KUIPER-00204", "group": "last-30-days", "lat": -37.18479694335441, "lon": -90.27278704922524, "alt_km": 461.5564163814588, "timestamp": "2025-12-27T15:27:09.834656+00:00", "meta": {"OBJECT_NAME": "KUIPER-00204", "OBJECT_ID": "2025-301N", "EPOCH": "2025-12-27T06:39:03.248352", "MEAN_MOTION": 15.36585089, "ECCENTRICITY": 0.0002099, "INCLINATION": 51.8746, "RA_OF_ASC_NODE": 54.9294, "ARG_OF_PERICENTER": 76.6318, "MEAN_ANOMALY": 283.4902, "EPHEMERIS_TYPE": 0, "CLASSIFICATION_TYPE": "U", "NORAD_CAT_ID": 67145, "ELEMENT_SET_NO": 999, "REV_AT_EPOCH": 271, "BSTAR": 0.00046477641, "MEAN_MOTION_DOT": 0.00016507, "MEAN_MOTION_DDOT": 0}, "tle": {"line1": "1 67145U 25301N   25361.27712093  .00016507  00000+0  46478-3 0  9992", "line2": "2 67145  51.8746  54.9294 0002099  76.6318 283.4902 15.36585089  2718"}}, "geometry": {"type": "Point", "coordinates": [-90.27278704922524, -37.18479694335441]}}, {"type": "Feature", "properties": {"norad_id": 67146, "name": "KUIPER-00210", "group": "last-30-days", "lat": 36.012657011586974, "lon": -161.46470047361777, "alt_km": 451.7285901589448, "timestamp": "2025-12-27T15:27:09.834669+00:00", "meta": {"OBJECT_NAME": "KUIPER-00210", "OBJECT_ID": "2025-301P", "EPOCH": "2025-12-27T05:30:08.171136", "MEAN_MOTION": 15.34235315, "ECCENTRICITY": 0.00105719, "INCLINATION": 51.8607, "RA_OF_ASC_NODE": 55.3628, "ARG_OF_PERICENTER": 153.5483, "MEAN_ANOMALY": 206.6044, "EPHEMERIS_TYPE": 0, "CLASSIFICATION_TYPE": "U", "NORAD_CAT_ID": 67146, "ELEMENT_SET_NO": 999, "REV_AT_EPOCH": 276, "BSTAR": 0.0010592672, "MEAN_MOTION_DOT": 0.00035483, "MEAN_MOTION_DDOT": 0}, "tle": {"line1": "1 67146U 25301P   25361.22926124  .00035483  00000+0  10593-2 0  9992", "line2": "2 67146  51.8607  55.3628 0010571 153.5483 206.6044 15.34235315  2764"}}, "geometry": {"type": "Point", "coordinates": [-161.46470047361777, 36.012657011586974]}}, {"type": "Feature", "properties": {"norad_id": 67147, "name": "KUIPER-00221", "group": "last-30-days", "lat": -12.82094935577947, "lon": -116.46767832783848, "alt_km": 460.12720769523276, "timestamp": "2025-12-27T15:27:09.834679+00:00", "meta": {"OBJECT_NAME": "KUIPER-00221", "OBJECT_ID": "2025-301Q", "EPOCH": "2025-12-27T06:47:36.673440", "MEAN_MOTION": 15.35782669, "ECCENTRICITY": 0.00050686, "INCLINATION": 51.8725, "RA_OF_ASC_NODE": 54.9767, "ARG_OF_PERICENTER": 116.3773, "MEAN_ANOMALY": 243.7734, "EPHEMERIS_TYPE": 0, "CLASSIFICATION_TYPE": "U", "NORAD_CAT_ID": 67147, "ELEMENT_SET_NO": 999, "REV_AT_EPOCH": 260, "BSTAR": 0.00063829804, "MEAN_MOTION_DOT": 0.0002225, "MEAN_MOTION_DDOT": 0}, "tle": {"line1": "1 67147U 25301Q   25361.28306335  .00022250  00000+0  63830-3 0  9996", "line2": "2 67147  51.8725  54.9767 0005068 116.3773 243.7734 15.35782669  2600"}}, "geometry": {"type": "Point", "coordinates": [-116.46767832783848, -12.82094935577947]}}, {"type": "Feature", "properties": {"norad_id": 67148, "name": "KUIPER-00232", "group": "last-30-days", "lat": -41.41426162391271, "lon": -83.00472520912062, "alt_km": 461.12529888651534, "timestamp": "2025-12-27T15:27:09.834690+00:00", "meta": {"OBJECT_NAME": "KUIPER-00232", "OBJECT_ID": "2025-301R", "EPOCH": "2025-12-27T06:37:16.302432", "MEAN_MOTION": 15.36747889, "ECCENTRICITY": 0.00016558, "INCLINATION": 51.8745, "RA_OF_ASC_NODE": 54.9256, "ARG_OF_PERICENTER": 55.0515, "MEAN_ANOMALY": 305.0627, "EPHEMERIS_TYPE": 0, "CLASSIFICATION_TYPE": "U", "NORAD_CAT_ID": 67148, "ELEMENT_SET_NO": 999, "REV_AT_EPOCH": 260, "BSTAR": 0.00051752933, "MEAN_MOTION_DOT": 0.00018528, "MEAN_MOTION_DDOT": 0}, "tle": {"line1": "1 67148U 25301R   25361.27588313  .00018528  00000+0  51753-3 0  9998", "line2": "2 67148  51.8745  54.9256 0001655  55.0515 305.0627 15.36747889  2606"}}, "geometry": {"type": "Point", "coordinates": [-83.00472520912062, -41.41426162391271]}}, {"type": "Feature", "properties": {"norad_id": 67149, "name": "KUIPER-00241", "group": "last-30-days", "lat": -28.961640106660195, "lon": -101.05051059468552, "alt_km": 461.60143696916657, "timestamp": "2025-12-27T15:27:09.834700+00:00", "meta": {"OBJECT_NAME": "KUIPER-00241", "OBJECT_ID": "2025-301S", "EPOCH": "2025-12-27T06:42:09.023040", "MEAN_MOTION": 15.36307948, "ECCENTRICITY": 0.00029158, "INCLINATION": 51.8747, "RA_OF_ASC_NODE": 54.9473, "ARG_OF_PERICENTER": 96.2518, "MEAN_ANOMALY": 263.8801, "EPHEMERIS_TYPE": 0, "CLASSIFICATION_TYPE": "U", "NORAD_CAT_ID": 67149, "ELEMENT_SET_NO": 999, "REV_AT_EPOCH": 293, "BSTAR": 0.00093046989, "MEAN_MOTION_DOT": 0.00033211, "MEAN_MOTION_DDOT": 0}, "tle": {"line1": "1 67149U 25301S   25361.27927110  .00033211  00000+0  93047-3 0  9999", "line2": "2 67149  51.8747  54.9473 0002915  96.2518 263.8801 15.36307948  2939"}}, "geometry": {"type": "Point", "coordinates": [-101.05051059468552, -28.961640106660195]}}, {"type": "Feature", "properties": {"norad_id": 67150, "name": "KUIPER-00245", "group": "last-30-days", "lat": -9.876734035494412, "lon": -118.898264429916, "alt_km": 459.3839419948217, "timestamp": "2025-12-27T15:27:09.834711+00:00", "meta": {"OBJECT_NAME": "KUIPER-00245", "OBJECT_ID": "2025-301T", "EPOCH": "2025-12-27T06:48:33.874560", "MEAN_MOTION": 15.35688677, "ECCENTRICITY": 0.00050741, "INCLINATION": 51.8729, "RA_OF_ASC_NODE": 54.9797, "ARG_OF_PERICENTER": 124.8823, "MEAN_ANOMALY": 235.2641, "EPHEMERIS_TYPE": 0, "CLASSIFICATION_TYPE": "U", "NORAD_CAT_ID": 67150, "ELEMENT_SET_NO": 999, "REV_AT_EPOCH": 260, "BSTAR": 0.00064427242, "MEAN_MOTION_DOT": 0.00022394, "MEAN_MOTION_DDOT": 0}, "tle": {"line1": "1 67150U 25301T   25361.28372540  .00022394  00000+0  64427-3 0  9993", "line2": "2 67150  51.8729  54.9797 0005074 124.8823 235.2641 15.35688677  2605"}}, "geometry": {"type": "Point", "coordinates": [-118.898264429916, -9.876734035494412]}}, {"type": "Feature", "properties": {"norad_id": 67151, "name": "KUIPER-00246", "group": "last-30-days", "lat": -19.944554310669346, "lon": -110.22801746024949, "alt_km": 460.77958996360485, "timestamp": "2025-12-27T15:27:09.834724+00:00", "meta": {"OBJECT_NAME": "KUIPER-00246", "OBJECT_ID": "2025-301U", "EPOCH": "2025-12-27T06:45:14.520384", "MEAN_MOTION": 15.35965612, "ECCENTRICITY": 0.00040166, "INCLINATION": 51.8741, "RA_OF_ASC_NODE": 54.9629, "ARG_OF_PERICENTER": 117.6356, "MEAN_ANOMALY": 242.5038, "EPHEMERIS_TYPE": 0, "CLASSIFICATION_TYPE": "U", "NORAD_CAT_ID": 67151, "ELEMENT_SET_NO": 999, "REV_AT_EPOCH": 262, "BSTAR": 0.00069800914, "MEAN_MOTION_DOT": 0.00024517, "MEAN_MOTION_DDOT": 0}, "tle": {"line1": "1 67151U 25301U   25361.28141806  .00024517  00000+0  69801-3 0  9993", "line2": "2 67151  51.8741  54.9629 0004016 117.6356 242.5038 15.35965612  2620"}}, "geometry": {"type": "Point", "coordinates": [-110.22801746024949, -19.944554310669346]}}, {"type": "Feature", "properties": {"norad_id": 67152, "name": "KUIPER-00247", "group": "last-30-days", "lat": 40.553803190313005, "lon": -168.86432853499792, "alt_km": 451.8282224950617, "timestamp": "2025-12-27T15:27:09.834742+00:00", "meta": {"OBJECT_NAME": "KUIPER-00247", "OBJECT_ID": "2025-301V", "EPOCH": "2025-12-27T05:31:58.593792", "MEAN_MOTION": 15.34049784, "ECCENTRICITY": 0.00112419, "INCLINATION": 51.8632, "RA_OF_ASC_NODE": 55.372, "ARG_OF_PERICENTER": 156.7034, "MEAN_ANOMALY": 203.4463, "EPHEMERIS_TYPE": 0, "CLASSIFICATION_TYPE": "U", "NORAD_CAT_ID": 67152, "ELEMENT_SET_NO": 999, "REV_AT_EPOCH": 259, "BSTAR": 0.0010043828, "MEAN_MOTION_DOT": 0.00033424, "MEAN_MOTION_DDOT": 0}, "tle": {"line1": "1 67152U 25301V   25361.23053928  .00033424  00000+0  10044-2 0  9997", "line2": "2 67152  51.8632  55.3720 0011241 156.7034 203.4463 15.34049784  2598"}}, "geometry": {"type": "Point", "coordinates": [-168.86432853499792, 40.553803190313005]}}]}